stop,lattitude,longitude,zip_code,district
Lubelska,51.16391631,16.91914727,54-101,Fabryczna
KRZYKI,51.07438486,17.00669989,53-015,Krzyki
Rynek,51.111912,17.027184,50-135,Stare Miasto
Zbożowa,51.17352979,16.91215216,54-067,Fabryczna
Na Niskich Łąkach,51.096267700000006,17.05654907,50-438,Krzyki
Damrota,51.12648854,17.0548761,50-304,Śródmieście
Krępicka - szkoła,51.15001334,16.86044907,54-018,Fabryczna
pl. Bema,51.116690999999996,17.041769,50-265,Śródmieście
Marszowicka,51.16316762,16.87851059,54-701,Fabryczna
Główna,51.16290437,16.89572296,54-062,Fabryczna
EPI,51.09818473,17.030473,50-088,Krzyki
Działdowska,51.13315884,17.10579419,51-424,Psie Pole
JANÓWEK (WOŚ),51.19115066,16.90616607,54-067,Fabryczna
C.H. Korona,51.14212427,17.09270855,51-421,Psie Pole
pl. Wróblewskiego,51.10422376,17.04834926,50-529,Krzyki
Volvo,51.120191999999996,17.114745000000003,51-501,Psie Pole
Szczodre - Szkoła,51.19811274,17.18961079,55-095,Szczodre
Wełniana,51.16084087,16.90522914,54-061,Fabryczna
Krynicka,51.07940741,17.05034902,50-555,Krzyki
GRABISZYŃSKA (Cmentarz),51.0896217,16.97666221,53-236,Fabryczna
Małopanewska,51.12390236,16.98681381,54-206,Fabryczna
Bajana,51.13048304,16.966959399999997,54-130,Fabryczna
Blizanowicka,51.07588443,17.09276207,52-020,Krzyki
Wiejska,51.07742462,16.96217924,52-411,Fabryczna
Północna,51.15703175,16.93446028,54-104,Fabryczna
Królewiecka,51.14526428,16.94642908,54-110,Fabryczna
Pustecka,51.13996335,16.85391538,54-007,Fabryczna
GALERIA DOMINIKAŃSKA,51.1089984,17.04117731,50-159,Stare Miasto
Wiśniowa,51.08354909,17.02641602,53-126,Krzyki
Kozia,51.15768909,16.92766461,54-104,Fabryczna
Skarbowców,51.06699853,16.99127638,53-030,Krzyki
Pracze Widawskie,51.17767648,17.01559687,51-180,Psie Pole
Kępa,51.23861834,17.20921822,55-095,Kępa
Bierzyce,51.23578317,17.18376696,55-095,Bierzyce
Budziwojowice,51.22308972,17.18798137,55-095,Budziwojowice
Długołęka - Kościół,51.17287543,17.19360514,55-095,Długołęka
Bielawa,51.15998678,17.25234579,55-093,Bielawa
Borowa - szkoła,51.18917012,17.27915873,55-093,Borowa
Świt,51.06047976,17.02571856,52-223,Krzyki
SPISKA (Ośrodek sportu),51.08314553,17.03110581,53-126,Krzyki
Turoszowska,51.15305206,16.94763156,54-106,Fabryczna
Wilkszyn - Polna,51.188619700000004,16.8665259,55-330,Wilkszyn
Wilkszyńska,51.17354367,16.88667266,54-079,Fabryczna
Brzezińska,51.14965084,16.86671724,54-000,Fabryczna
Dworska,51.14360639,16.95344812,54-144,Fabryczna
Las Ratyński,51.12327482,16.83302337,54-007,Fabryczna
Graniczna,51.10871787,16.90920429,54-530,Fabryczna
METALOWCÓW (Ośrodek sportu),51.12958939,16.95495766,54-156,Fabryczna
Metalowców,51.132431200000006,16.95777519,54-132,Fabryczna
Górnicza,51.13990212,16.95941433,54-144,Fabryczna
Wiślańska,51.13638789,16.97890749,54-152,Fabryczna
DH Astra,51.12842183,16.97567097,54-130,Fabryczna
Kwiska,51.125275,16.98351443,53-671,Fabryczna
Niedźwiedzia,51.12169768,16.99334357,54-234,Fabryczna
Młodych Techników,51.11303378,17.01259791,53-671,Stare Miasto
Muchobór Wielki,51.09892535,16.94155277,54-611,Fabryczna
Modra,51.13773561,16.964883899999997,54-150,Fabryczna
FAT,51.09462771,16.98126206,53-245,Fabryczna
KLECINA (Stacja kolejowa),51.05816,16.987910999999997,52-315,Krzyki
pl. Legionów,51.10416471,17.02010903,53-501,Stare Miasto
Żelazna,51.09612796,17.01249649,53-443,Fabryczna
Mielecka,51.08952198,16.99968964,53-325,Fabryczna
Gajowicka,51.08844534,17.00546435,53-325,Fabryczna
Jaworowa,51.081711799999994,17.02315206,53-111,Krzyki
OSOBOWICE,51.13747777,16.99365991,51-008,Psie Pole
OSOBOWICKA (Cmentarz II),51.13453676,17.01095511,51-004,Psie Pole
Łużycka,51.13623008,17.0164017,51-111,Psie Pole
most Osobowicki,51.13315338,17.02642077,51-004,Psie Pole
Bezpieczna,51.14300155,17.02524948,51-114,Psie Pole
Bałtycka,51.137586600000006,17.03060944,51-120,Psie Pole
OSOBOWICE (Stacja kolejowa),51.16545752,16.99899845,51-180,Psie Pole
Polanowicka,51.17006287,17.02366992,51-180,Psie Pole
Szymanów - skrzyż.,51.18840693,17.0306521,51-188,Psary
Mochnackiego,51.14228775,17.03675168,51-124,Psie Pole
Szkocka,51.11014182,16.9688408,54-424,Fabryczna
PL. STASZICA,51.12214228,17.03076658,50-219,Śródmieście
Dubois,51.11694924,17.03421196,50-257,Śródmieście
Ogród Botaniczny,51.11715674,17.05147222,50-349,Śródmieście
Piastowska,51.11578475,17.06018899,50-348,Śródmieście
Mickiewicza,51.10927179,17.07474936,51-619,Śródmieście
Czajkowskiego,51.13916433,17.06510721,51-171,Psie Pole
Koszarowa,51.14030866,17.07010305,51-168,Psie Pole
Poprzeczna,51.1466086,17.07419874,51-168,Psie Pole
Brücknera,51.13916827,17.08080603,51-165,Psie Pole
Tczewska,51.13146458,17.11117001,51-423,Psie Pole
Zgorzelisko,51.13837255,17.13131986,51-352,Psie Pole
Mroźna,51.13492443,17.13790104,51-352,Psie Pole
BIERUTOWSKA (Wiadukt),51.1581934,17.14654658,50,Psie Pole
Szczodre - Trzebnicka,51.19036161,17.18419442,55-095,Szczodre
Szczodre - stawy,51.204468,17.20535345,55-095,Szczodre
KOZANÓW,51.13747754,16.96830831,54-151,Fabryczna
Dąbrowica,51.21748827,17.21682474,55-095,Dąbrowica
Park Szczytnicki,51.11154666,17.08302653,51-620,Śródmieście
Chełmońskiego,51.10365181,17.09094842,51-627,Śródmieście
Piramowicza,51.10298927,17.09696465,51-658,Śródmieście
Kmieca,51.1052327,17.14574034,51-514,Psie Pole
Niedziałkowskiego,51.109811,17.137981,51-506,Psie Pole
Ostrowskiego,51.0957226,16.97284737,52-007,Fabryczna
Przystankowa,51.07152509,17.03257553,50-558,Krzyki
Gałczyńskiego,51.05428456,17.03224953,52-232,Krzyki
Kamienna,51.08499038,17.047973000000002,50-545,Krzyki
Dzielna,51.13863431,16.97689014,54-152,Fabryczna
Armii Krajowej,51.08783364,17.06830653,50-438,Krzyki
Poleska,51.14653016,17.12905109,51-315,Psie Pole
BISKUPIN,51.10098894,17.10878688,51-648,Śródmieście
Uniwersytet Ekonomiczny,51.08976803,17.02673179,50-545,Krzyki
Urząd Wojewódzki,51.10852219,17.05022,50-408,Krzyki
Stadion Olimpijski,51.11682539,17.09007458,51-612,Śródmieście
Wrocławski Park Technologiczny,51.10506383,16.97074816,54-413,Fabryczna
Katedra,51.11419938,17.05079812,50-330,Śródmieście
Białych Goździków,51.15680321,17.10094742,51-376,Psie Pole
KROMERA,51.13222406,17.06514893,51-163,Psie Pole
TARNOGAJ,51.07779233,17.06466995,50-513,Krzyki
Kolista,51.13273709,16.97388104,54-150,Fabryczna
Wschowska,51.14486325,16.88184695,54-042,Fabryczna
PILCZYCE,51.13642902,16.95050781,54-132,Fabryczna
Bierutowska,51.15378722,17.13636151,51-317,Psie Pole
Żmudzka,51.145458000000005,17.142077,51-315,Psie Pole
Przyjaźni,51.06973483,17.00400882,53-018,Krzyki
Marchewkowa,51.06643762,16.97413031,52-437,Krzyki
Szybowcowa,51.12938773,16.96521794,54-129,Fabryczna
Jastrzębia,51.08463583,17.01120749,53-332,Krzyki
Sztabowa,51.08806244,17.0143858,53-315,Krzyki
Spółdzielcza,51.10266017,17.10242505,51-662,Śródmieście
Monte Cassino,51.10569558,17.10504999,51-662,Śródmieście
most Grunwaldzki,51.11013327,17.0555734,50-384,Śródmieście
Dmowskiego,51.11698989,17.02566254,50-202,Śródmieście
Radio i Telewizja,51.07185782,17.00601881,53-015,Krzyki
Zimowa,51.07064583,16.99875648,53-020,Krzyki
Moniuszki,51.11949071,17.08279214,51-610,Śródmieście
Kątna,51.13267147,17.28352374,55-093,Kątna
Mosty Warszawskie,51.12838294,17.0538428,50-303,Śródmieście
Gądowianka,51.12016721,16.97302313,54-215,Fabryczna
Na Ostatnim Groszu,51.12255316,16.97483996,54-130,Fabryczna
Nowowiejska,51.1242394,17.04498789,50-301,Śródmieście
Daszyńskiego,51.12631807,17.04775741,50-304,Śródmieście
Sołtysowicka,51.14245178,17.07091309,51-168,Psie Pole
Grabowa,51.13978497,16.92227466,52-007,Fabryczna
Pl. SOLIDARNOŚCI,51.11370605,17.01752428,52-007,Stare Miasto
Hala Orbita,51.1323514,16.989439100000002,51,Fabryczna
Marcepanowa,51.06175789,16.9758113,52-317,Krzyki
Wilczyce - Sosnowa,51.13149048,17.16806867,51-361,Wilczyce
Owczarska,51.15171395,16.86468371,54-072,Fabryczna
Brodzka,51.15757459,16.92406355,54-104,Fabryczna
Glinianki,51.13811947,16.93628352,50,Fabryczna
Aleja Pracy,51.09138458,16.98670185,53-212,Fabryczna
Bociania,51.12973225,17.09805406,51-416,Psie Pole
Braterska,51.06761646,16.999554,53-030,Krzyki
Broniewskiego,51.1353023,17.03633491,51-118,Psie Pole
Bujwida,51.11336316,17.06690582,50-378,Śródmieście
Złotnicka,51.14410083,16.88886439,54-042,Fabryczna
Chopina,51.11673691,17.08162462,51-608,Śródmieście
DWORZEC NADODRZE,51.1242294,17.03500925,50-255,Śródmieście
DWORZEC AUTOBUSOWY,51.09712267,17.03264418,50-088,Krzyki
Fiołkowa,51.09210593,16.97749101,50-001,Fabryczna
Średzka,51.14535622,16.86660794,54-002,Fabryczna
Gęsia,51.13184923,17.08816611,51-415,Psie Pole
Górnickiego,51.11625309,17.05491953,50-349,Śródmieście
Grabiszyńska,51.10209878,17.01244095,53-504,Stare Miasto
Grunwaldzka,51.1150209,17.0677333,50-352,Śródmieście
GRABISZYNEK,51.09066947,16.98893291,53-203,Fabryczna
Hala Stulecia,51.10689468,17.07372026,51-618,Śródmieście
Hala Targowa,51.11266094,17.03941049,50-158,Stare Miasto
TRZMIELOWICKA (Stacja kolejowa),51.14275073,16.86252125,54-008,Fabryczna
Hutmen,51.09589673,16.98576959,53-235,Fabryczna
Sąsiedzka,51.06674373,16.99465411,53-030,Krzyki
Jedności Narodowej,51.121548600000004,17.04345675,50-320,Śródmieście
Jeleniogórska,51.14519161,16.87842822,54-126,Fabryczna
Joannitów,51.09337724,17.03611766,50-525,Krzyki
Oławska,51.10863478,17.03398723,50-438,Stare Miasto
Trzmielowicka,51.14095766,16.85460787,54-007,Fabryczna
Kamieńskiego,51.14074745,17.03213386,51-112,Psie Pole
Karłowicza,51.11691447,17.08605899,51-612,Śródmieście
Karwińska,51.08194356,17.07696045,52-015,Krzyki
Kępińska,51.1442051,17.03107522,51-130,Psie Pole
Kętrzyńska,51.13087796,17.07448225,50,Psie Pole
Kleczkowska,51.12728381,17.02758415,50-225,Psie Pole
Miodowa,51.13514825,16.84874161,54-007,Fabryczna
Klimasa,51.08000344,17.06255176,50-515,Krzyki
Kliniki,51.10920637,17.06641438,50-369,Śródmieście
KLECINA,51.06566863,16.98735013,53-030,Krzyki
Komuny Paryskiej,51.10172598,17.04611604,50-451,Krzyki
Kopernika,51.11199113,17.08484451,51-620,Śródmieście
Kościuszki,51.1001978,17.04528826,50-445,Krzyki
KOWALE,51.12781419,17.10219214,51-416,Psie Pole
KSIĘŻE MAŁE,51.07727819,17.0840056,52-010,Krzyki
Kwidzyńska,51.13161876,17.07947189,51-430,Psie Pole
Szkolna,51.13160819,16.84817259,54-007,Fabryczna
LEŚNICA,51.14465236,16.87170532,54-071,Fabryczna
Na Szańcach,51.11940016,17.04201805,50-326,Śródmieście
Uniwersytecka,51.11263202,17.03585352,50-139,Stare Miasto
Nyska,51.08299211,17.0546832,50-541,Krzyki
RATYŃ,51.12975964,16.86048724,54-006,Fabryczna
Ojca Beyzyma,51.090369,16.99331873,53-201,Fabryczna
Opera,51.10563587,17.03185662,50-051,Stare Miasto
Orla,51.08010376,17.00802948,53-332,Krzyki
Gromadzka,51.12924425,16.85387079,54-007,Fabryczna
pl. Zgody,51.10060371,17.05331733,50-438,Krzyki
Park Wschodni,51.08488586,17.07219405,50-001,Krzyki
Park Zachodni,51.12932561,16.97212112,54-154,Fabryczna
Paulińska,51.12097128,17.03500554,50-247,Śródmieście
Renoma,51.10374952,17.03063782,50-029,Stare Miasto
Pereca,51.1010779,17.00743968,53-439,Fabryczna
PL. JANA PAWŁA II,51.11213444,17.02222942,50-043,Stare Miasto
Pomorska,51.11789231,17.03100195,50-207,Śródmieście
Prudnicka,51.08920284,17.04505116,50-505,Krzyki
Kośnego,51.1207106,16.86401211,54-530,Fabryczna
Prusa,51.11984446,17.05636847,50-314,Śródmieście
Pułaskiego,51.09819425,17.04302503,50-084,Krzyki
Reja,51.11278613,17.05556464,50-382,Śródmieście
Rondo,51.09069023,17.01712401,53-333,Krzyki
Sanocka,51.09328159,17.03023264,53-301,Krzyki
Słowiańska,51.123454100000004,17.04047812,50-234,Śródmieście
Stalowa,51.09966578,17.00165187,53-434,Fabryczna
Świdnicka,51.10744994,17.03195223,50-066,Stare Miasto
Tramwajowa,51.10432787,17.08421204,51-621,Śródmieście
Transbud,51.08367681,17.060203899999998,50-512,Krzyki
Trzebnicka,51.12864991,17.03653187,50-229,Psie Pole
Krakowska,51.09331098,17.05994281,50-438,Krzyki
Adamczewskich,51.12084396,16.86953486,54-530,Fabryczna
Wyszyńskiego,51.12191852,17.05294165,50-315,Śródmieście
ZACHODNIA (Stacja kolejowa),51.11639769,17.00040918,53-671,Stare Miasto
ZOO,51.10561429,17.07741786,51-618,Śródmieście
Gajowa,51.09193397,17.03993818,50-525,Krzyki
Volvo - brama II,51.118114,17.111663,51-501,Psie Pole
Bąków,51.21175702,17.15947424,55-095,Bąków
RUBCZAKA (Stacja kolejowa),51.14330576,16.86637818,54-002,Fabryczna
Gałowska,51.11323644,16.84509138,54-530,Fabryczna
Łososiowicka,51.175305,16.88225,54-079,Fabryczna
Słoneczna,51.05882671,16.97377967,52-326,Krzyki
Januszkowice - Wierzbowa,51.22401904,17.23846002,55-095,Januszkowice
GRABISZYŃSKA (Cmentarz II),51.08811421,16.97565868,51,Fabryczna
Bukowina,51.21076631,17.14012394,55-095,Bukowina
PL. GRUNWALDZKI,51.11162051,17.06008642,50-363,Śródmieście
Małomicka,51.16669837,16.88756114,54-078,Fabryczna
KUŹNIKI,51.123897,16.950862,54-316,Fabryczna
Zalewowa,51.09080892,17.13457316,52-029,Krzyki
Rękodzielnicza,51.13623572,16.96033939,54-139,Fabryczna
Morwowa,51.07654639,17.05317017,50-001,Krzyki
Strachowicka,51.12351475,16.91906988,54-438,Fabryczna
Mokrzańska,51.14920934,16.85466784,54-016,Fabryczna
Krępicka,51.1512331,16.85637445,54-018,Fabryczna
Zajazdowa,51.14809482,16.86536551,54-018,Fabryczna
Gwiaździsta,51.09955037,17.02628856,53-332,Krzyki
Żerniki,51.12363311,16.92295119,54-510,Fabryczna
MIŃSKA (Rondo Rotm. Pileckiego),51.10530939,16.94892826,54-610,Fabryczna
Bierutowska 75,51.15575814,17.13998408,51-317,Psie Pole
Szczecińska,51.12245085,16.93099623,54-510,Fabryczna
Szczepin,51.11763769,17.00648374,53-631,Stare Miasto
Bagatela,51.15276265,17.06938922,51-169,Psie Pole
Połabian,51.05623724,16.97047495,52-340,Krzyki
BIEŃKOWICE,51.04770885,17.09101956,52-127,Krzyki
Przedwiośnie (Stacja kolejowa),51.16042707,17.12241711,51-216,Psie Pole
Kołobrzeska,51.12103055,16.94541342,54-438,Fabryczna
Wielkopolska,51.14058794,16.88757032,54-028,Fabryczna
Złotniki,51.13893653,16.89340008,54-032,Fabryczna
Ożynowa,51.06439698,17.00945618,53-010,Krzyki
Tunelowa,51.06487773,17.06548395,52-130,Krzyki
Park Brochowski,51.0627158,17.07586716,52-100,Krzyki
Wojszycka,51.06771887,17.0143228,53-006,Krzyki
Kochanowskiego,51.115018,17.073334,51-602,Śródmieście
POCZTA POLSKA,51.08672704,16.94930841,50-900,Fabryczna
Hartmana,51.159949,16.87715945,54-078,Fabryczna
OSIEDLE SOBIESKIEGO,51.15902626,17.1324327,51-200,Psie Pole
Aleja Wędrowców,51.0879861,16.99188243,53-208,Fabryczna
Hermanowska,51.122238,16.955623000000003,54-314,Fabryczna
Adamieckiego,51.07328333,16.96365272,52-400,Fabryczna
Solskiego,51.08179036,16.96866979,52-401,Fabryczna
Opatowicka nr 127,51.09192757,17.13303338,52-028,Krzyki
Bystrzycka,51.12405663,16.95807128,54-129,Fabryczna
BARDZKA (Cmentarz),51.07326554,17.05329449,50-516,Krzyki
Hynka,51.12246208,16.96215449,54-129,Fabryczna
PARK POŁUDNIOWY,51.07262005,17.01074356,53-141,Krzyki
Szewczenki,51.14178408,17.12546921,51-354,Psie Pole
Gąsiorowskiego,51.14385496,17.03975428,51-124,Psie Pole
Drzewieckiego,51.12158052,16.96790892,54-130,Fabryczna
Suwalska,51.15177226,16.927154100000003,54-117,Fabryczna
Wojszyce,51.06539714,17.03222542,52-218,Krzyki
Parafialna,51.06315728,17.03224845,52-218,Krzyki
Las Mokrzański,51.17590617,16.83354894,54-000,Fabryczna
Świeradowska,51.07715188,17.04626183,50-555,Krzyki
Orlińskiego,51.12212052,16.97192044,54-130,Fabryczna
Bierzyce - wieś,51.23840362,17.1848725,55-095,Bierzyce
Wejherowska,51.12945152,16.98664037,54-236,Fabryczna
Pruszowice - las,51.18331166,17.14492989,51-217,Pruszowice
Kiełczówek - pętla,51.11899673,17.18627475,51-311,Kiełczówek
Kiełczówek,51.11944868,17.17899828,51-311,Kiełczówek
Kowalska I,51.1266857,17.11563506,51-424,Psie Pole
Krajobrazowa,51.12898034,16.83964368,50-001,Fabryczna
Rysia,51.12791017,16.99059109,54-236,Fabryczna
Lipska,51.14507171,16.98734081,51-003,Psie Pole
Kiełczów - Rzeczna,51.12985947,17.17475177,55-093,Kiełczów
Popowice,51.12604304,16.99669307,54-238,Fabryczna
Obornicka (Obwodnica),51.15794943,17.00999289,51-113,Psie Pole
Poświęcka,51.1565148,17.03409307,51-128,Psie Pole
Pawłowice,51.16543266,17.10659033,51-250,Psie Pole
Starodębowa,51.16738294,17.10593248,51-250,Psie Pole
Brzezina - Osiedle,51.19216313,16.83345583,55-330,Brzezina
Grawerska,51.176601399999996,17.0181999,51-180,Psie Pole
Samotwór - Dębowa,51.106477000000005,16.835948000000002,55,Samotwór
Wita Stwosza,51.11073822,17.03497352,50-139,Stare Miasto
Przybyszewskiego,51.14011673,17.06296696,51-171,Psie Pole
Wilczyce - Dębowa,51.13032692,17.16282358,51-361,
Brzezia Łąka - cmentarz,51.12272092,17.23919941,55-093,Brzezia Łąka
Oleśniczka,51.14661219,17.2806309,55-093,Oleśniczka
ROD Tysiąclecia,51.11161607,16.95219543,54-440,Fabryczna
Rogowska,51.11037655,16.95594481,54-432,Fabryczna
ROD Oświata,51.10097911,16.97279839,54-411,Fabryczna
ROD Storczyk,51.04775363,17.0159136,52-200,Krzyki
Komandorska,51.09216009,17.0245164,53-341,Krzyki
Długa,51.11908357,17.01528336,53-657,Stare Miasto
KRAKOWSKA (Centrum handlowe),51.09003448,17.06483268,50-438,Krzyki
Zakrzowska,51.15203011,17.11656448,51-318,Psie Pole
Wallenroda,51.15496665,17.11912776,54-436,Psie Pole
ROD Pod Dębem,51.15370502,17.10444537,51-376,Psie Pole
Dobroszycka,51.15145539,17.1282492,51-317,Psie Pole
Wilczyce,51.13302091,17.14288258,51-361,Wilczyce
Wielka,51.09422402,17.02153104,53-333,Krzyki
ROD Bajki,51.08389472,17.03529441,50-552,Krzyki
ROD Zgoda,51.06605814,17.05995315,52-130,Krzyki
ROD Źródło Zdrowia,51.15068559,17.10857941,51-376,Psie Pole
ROD Mieczyk,51.06388949,17.07249222,52-114,Krzyki
Głogowska,51.11742624,17.00353097,53-622,Stare Miasto
Tokary - osiedle,51.23085629,17.13505302,55-095,Tokary
GAJ - pętla,51.07712309,17.04959717,50-539,Krzyki
WAŁBRZYSKA,51.06323004,16.97676339,52-326,Krzyki
ŚWIDNICKA (Dom Europy),51.10681212,17.03341338,50-052,Stare Miasto
Inowrocławska,51.11543774,17.01528869,53-643,Stare Miasto
PILCZYCKA (Anima),51.13509602,16.96913353,54-144,Fabryczna
Borowska,51.08806677,17.036473899999997,50-531,Krzyki
Śrubowa,51.11128156,17.00302028,53-608,Stare Miasto
JARNOŁTÓW,51.12141764,16.8439344,54-530,Fabryczna
LITOMSKA (ZUS),51.11990865,17.01013739,53-632,Stare Miasto
Szkoła Żerniki,51.12140135,16.92506799,54-512,Fabryczna
Zajezdnia BOREK,51.07862472,17.00699043,51,Krzyki
Zajezdnia OŁBIN,51.12383941,17.04104391,50-235,Śródmieście
Zajezdnia GAJ,51.08926588,17.02968036,50-545,Krzyki
PSIE POLE (Stacja kolejowa),51.150580100000006,17.12055034,51-317,Psie Pole
Nowy Dwór,51.11258728,16.95992956,54-434,Fabryczna
Rdestowa,51.11127477,16.88805773,54-530,Fabryczna
GAJ,51.07690057,17.04193165,50-559,Krzyki
Arabska,51.05115765,17.092325600000002,55-010,Krzyki
Głubczycka,51.08015955,17.08001001,52-010,Krzyki
Ziemniaczana,51.05405004,17.09230422,52-110,Krzyki
SĘPOLNO,51.11428512,17.10389412,51-684,Śródmieście
STADION WROCŁAW (Królewiecka),51.14356746,16.94996015,51,Fabryczna
Zemska,51.11539031,16.94736664,54-440,Fabryczna
Stadion Wrocław (Lotnicza),51.13738147,16.94032898,50,Fabryczna
Chociebuska,51.11467304,16.95805983,54-434,Fabryczna
Grudziądzka,51.13794927,17.07506203,51-165,Psie Pole
Nowy Dwór (Rogowska),51.11862311,16.95486963,54-440,Fabryczna
Kozanowska,51.13899902,16.96527394,54-142,Fabryczna
Zagłoby,51.109541899999996,16.93024823,54-610,Fabryczna
Wysoka,51.04608202,17.01297401,52-200,Wrocław
Park Tysiąclecia,51.10873561,16.9432753,54-516,Fabryczna
Inflancka,51.14235835,17.13041532,51-354,Psie Pole
pl. Strzegomski (Muzeum Współczesne),51.11323868,17.00788625,53-671,Stare Miasto
Tyrmanda,51.10310017,16.94554415,54-608,Fabryczna
Pułtuska,51.074557500000004,17.01644371,53-112,Krzyki
Góra Kapliczna,51.15127618,16.99292074,51-003,Psie Pole
Krzemieniecka,51.0963781,16.95695002,54-613,Fabryczna
Park Staromiejski,51.10512525,17.03689849,50-055,Stare Miasto
KSIĘŻE WIELKIE,51.06983317,17.09753488,52-014,Krzyki
Wojnów,51.09712203,17.16404547,51-511,Psie Pole
WOJNÓW (pętla),51.09590148,17.16596794,55-002,Łany
Olsztyńska,51.13938597,17.0951032,51-423,Psie Pole
Końcowa,51.09582149,16.96245172,54-613,Fabryczna
Psie Pole (Gorlicka),51.14583876,17.11371681,51-314,Psie Pole
Graniczna (Strachowicka),51.110801200000004,16.89857603,50-001,Fabryczna
Kiełczowska (Cmentarz),51.14534175,17.14802053,51-315,Psie Pole
most Milenijny,51.13651152,16.99927273,51-008,Psie Pole
Kamieńskiego (Szpital),51.148294,17.042744,51-124,Psie Pole
MUCHOBÓR MAŁY (Stacja kolejowa),51.11257866,16.9706042,54-425,Fabryczna
PAWŁOWICE (Widawska),51.17341597,17.11642167,51-230,Psie Pole
Żernicka (Stacja kolejowa),51.12608329,16.91425947,54-510,Fabryczna
Arkady (Capitol),51.1020902,17.02946781,50-028,Stare Miasto
pl. Nowy Targ,51.11038706,17.03915952,50-438,Stare Miasto
Psie Pole,51.145827000000004,17.111563,51-310,Psie Pole
Żernicka,51.125577,16.912368,54-519,Fabryczna
Pisarzowice - Szkolna,51.2097013,16.8511683,55-330,Pisarzowice
Pisarzowice - Kolejowa,51.213741299999995,16.8474439,55-330,Pisarzowice
Jordanowska,51.07966649,16.95747724,52-007,Fabryczna
Ratyń - skrzyżowanie,51.13028539,16.84766226,54-007,Fabryczna
Orzechowa,51.08295665,17.04180447,50-541,Krzyki
Ślusarska,51.0841596,16.9903802,53-205,Fabryczna
RĘDZIN,51.16615031,16.96673588,51-051,Psie Pole
Pawłowicka,51.16960588,17.11320823,51-250,Psie Pole
BARTOSZOWICE,51.1025481,17.11606706,51-649,Śródmieście
Nowodworska,51.11385803,16.96471814,54-432,Fabryczna
BLACHARSKA,51.08210113,16.98960253,53-206,Fabryczna
KOZANÓW (Dokerska),51.14128356,16.96409541,54-151,Fabryczna
Dyrekcyjna,51.09430136,17.03222909,50-525,Krzyki
Chińska,51.06042994,17.08323143,55-010,Krzyki
Semaforowa,51.06170301,17.07956093,52-114,Krzyki
Złotostocka,51.07714643,17.06030348,50-513,Krzyki
Kiełczów - Zgodna,51.13762207,17.18692866,55-093,Kiełczów
Kiełczów - Wrocławska,51.1409341,17.17432029,55-093,Śliwice
Kiełczów - Mleczna,51.14020196,17.17808404,55-093,Kiełczów
BIERUTOWSKA (Ośrodek zdrowia),51.151649,17.130748999999998,51-317,Psie Pole
Kwiatkowskiego (Rondo),51.07252597,16.95363941,52-407,Fabryczna
Kiełczów - Boczna,51.13742822,17.18863976,55-093,Kiełczów
Nowy Dwór (Stacja kolejowa),51.11991882,16.95264053,54-440,Fabryczna
Kościelna,51.06286242,16.983408999999998,52-314,Krzyki
Wzgórze Partyzantów,51.10378692,17.03849027,50-438,Stare Miasto
Magellana,51.11355453,17.12133497,51-501,Psie Pole
Eluarda,51.146228,16.86740811,54-072,Fabryczna
Zarembowicza,51.10790125,16.89935252,54-530,Fabryczna
Skarżyńskiego,51.10920961,16.90416773,54-530,Fabryczna
NOWY DWÓR (pętla),51.11949152,16.95177714,54-440,Fabryczna
KAMIEŃSKIEGO (pętla),51.15069911,17.04307115,51-124,Psie Pole
Inżynierska,51.09454012,16.99196391,53-224,Fabryczna
Fieldorfa (Szpital),51.144146,16.906701,50,Fabryczna
Janówek,51.198083000000004,16.90589197,54-067,Fabryczna
Kosmonautów (Szpital),51.14173546,16.90608263,54-126,Fabryczna
Świętokrzyska,51.11729733,17.04418632,50-335,Śródmieście
Rzemieślnicza,51.1714458,17.004703600000003,51-180,Psie Pole
Stępin,51.20848301,17.28088818,55-093,Stępin
Sosnowiecka,51.07045986,17.09154329,52-010,Krzyki
Grochowa,51.09621774,17.00580891,53-430,Fabryczna
Pietrzykowice,51.12333402,17.23231705,55-093,Pietrzykowice
Śliwice,51.12893684,17.21403113,55-093,Śliwice
Pasikurowice - n/ż,51.21588367,17.11747685,55-095,Pasikurowice
Przebiśniegowa,51.17252073,17.11334336,51-250,Psie Pole
Trawowa,51.09705874,16.95051131,54-613,Fabryczna
Rubczaka,51.14419429,16.86596484,54-002,Fabryczna
Krucza,51.09215593,17.00848546,53-407,Krzyki
Zaprężyn,51.2519651,17.19294772,55-095,Zaprężyn
Witkowska,51.14840432,16.98892202,51-003,Psie Pole
Husarska,51.06012872,17.00209835,53-033,Krzyki
Brzezina - Kościół,51.2023321,16.8327646,55-330,Brzezina
Wojanowska,51.153871,16.89341,54-054,Fabryczna
Zamkowa,51.10758946,17.02995215,50-438,Stare Miasto
PETRUSEWICZA,51.092306,17.030741,53-302,Krzyki
Zagony,51.10087942,16.94224152,54-610,Fabryczna
Strachowice General Aviation,51.10501115,16.899064300000003,50-001,Fabryczna
Zaporoska,51.09653975,17.01452167,53-445,Krzyki
POŚWIĘTNE,51.15066735,17.02895604,51-131,Psie Pole
Centrum Zarządzania Kryzysowego,51.11462919,16.97229761,54-430,Fabryczna
RĘDZIŃSKA,51.15738767,16.94887637,54-105,Fabryczna
BROCHÓW,51.058964,17.086479,52-118,Krzyki
PRACZE ODRZAŃSKIE,51.17470504,16.90660195,54-067,Fabryczna
KOSZAROWA (Szpital),51.14166296,17.06477615,51-148,Psie Pole
SOŁTYSOWICE,51.15517037,17.06442221,51-169,Psie Pole
Pl. Hirszfelda,51.09382147,17.01795905,53-340,Krzyki
OPORÓW,51.08413312,16.97203013,53-503,Fabryczna
MULICKA,51.14506,17.116839000000002,51-314,Psie Pole
Drukarska,51.08977428,17.02139075,53-312,Krzyki
Psary - Parkowa,51.18255283,17.04025444,55-114,Psary
Wołowska,51.14842308,17.03022762,51-130,Psie Pole
Kamiennogórska (Ośrodek dla niewidomych),51.14249314,16.90073956,54-033,Fabryczna
Małopolska (Ośrodek dla niewidomych),51.13745748,16.89888581,54-032,Fabryczna
Kowalska 56,51.13647537,17.09740219,51-424,Psie Pole
Opatowicka nr 59,51.0950859,17.115921,52-028,Krzyki
Muchobór Wielki (Roślinna),51.10176043,16.94397772,54-610,Fabryczna
Odolanowska,51.16599,17.129552,51-219,Psie Pole
Odrodzenia Polski,51.16407293,17.12582132,51-216,Psie Pole
TYNIECKA (pętla),51.07596159,16.95289375,52-407,Fabryczna
Tyniecka,51.072179999999996,16.958427,52-407,Fabryczna
Serbska (C.K. Agora),51.1338962,17.0196455,51-110,Psie Pole
MOKRY DWÓR,51.071172999999995,17.123951,50-458,Mokry Dwór
TRESTNO (pętla),51.07577133,17.14536285,50-458,Blizanowice
Starodworska,51.073809999999995,17.108553,54,Krzyki
Skierniewicka,51.07765014,17.0144646,52-007,Krzyki
Jarzębinowa,51.08129657,17.01656596,53-134,Krzyki
IWINY - pętla,51.04231,17.072276000000002,52-116,Iwiny
Wyścigowa,51.06970634,17.01205044,53-006,Krzyki
Iwiny - Kolejowa,51.04043197,17.07521438,52-116,
Hippiczna,51.06794444,17.00885402,53-011,Krzyki
BLIZANOWICE,51.07011,17.157232999999998,50-458,Blizanowice
KOSZAROWA (Uniwersytet),51.14049516,17.06847989,51-149,Psie Pole
Narodowe Forum Muzyki,51.107898999999996,17.026294,50-043,Stare Miasto
Jarnołtowska (Samotworska),51.12008386,16.85024756,54-530,Fabryczna
Samotworska,51.11824079,16.84750134,54-530,Fabryczna
Biskupice Podgórne LG Innotek,51.01838302,16.88883209,55-040,Biskupice Podgórne
Biskupice Podgórne LG Chem,51.015921999999996,16.886978,55-040,
Partynice,51.06154956,16.99764462,53-015,Krzyki
Bulwar Dedala,51.12678746,16.96299853,54-129,Fabryczna
Sudecka,51.08566549,17.01660936,53-128,Krzyki
Psie Pole (Rondo Lotników Polskich),51.14714,17.114363,51-310,Psie Pole
Psary - Szkoła,51.186704999999996,17.031851,51-188,Psary
Krępice,51.153186,16.816681,55-330,Wrocław
Rondo Obrońców Grodna,51.16475786,17.02767914,51-180,Psie Pole
Strachowskiego,51.0582375,17.01565182,52-210,Krzyki
Bzowa (Centrum Zajezdnia),51.09750864,16.99130994,53-503,Fabryczna
Krucza (Mielecka),51.09341211,17.00376531,53-410,Fabryczna
Godebskiego (AWF Wrocław),51.11377088,17.09846129,51-620,Śródmieście
Kromera (Czajkowskiego),51.13557581,17.06907505,51-163,Psie Pole
Wilkszyn (pętla),51.191886,16.862751,55-330,
Ołtaszyn,51.05680038,17.02227718,52-210,Krzyki
Wilkszyn - Miłoszyn,51.1827212,16.8725008,55-330,Wilkszyn
GAŁÓW (pętla),51.11189,16.810629000000002,55-330,Gałów
Pisarzowice - Odrzańska,51.2052389,16.8525611,55-330,Pisarzowice
Pisarzowice - Graniczna,51.196822999999995,16.8549944,55-330,Pisarzowice
Rymarska,51.07935,16.991641,53-149,Fabryczna
Krasińskiego,51.10585896,17.04334082,50-450,Krzyki
Kurpiów,51.05488165,17.02661079,52-214,Krzyki
DWORZEC GŁÓWNY,51.09918778,17.03433441,50-018,Stare Miasto
Dworzec Główny (Stawowa),51.09941,17.033499,50-023,Stare Miasto
Słonimskiego,51.130614,17.045078,50-304,Psie Pole
Zakładowa,51.12991454,17.03836452,50-304,Psie Pole
Tymiankowa,51.17578884,16.99366911,51-180,Psie Pole
Cynamonowa,51.17602669,16.998303399999998,50-001,Psie Pole
Waniliowa,51.178346999999995,16.999972,51-100,Psie Pole
Gospodarska,51.11869211,17.12298363,51-503,Psie Pole
Kutrzeby,51.05183322,17.01882927,52-213,Krzyki
Konduktorska,51.065565,17.055056,52-131,Krzyki
Armii Krajowej (Bogedaina),51.08534694,17.06528881,53-126,Krzyki
pl. Srebrny,51.098488,16.996146,53-439,Fabryczna
Kadłubka,51.07622344,16.96886864,52-424,Fabryczna
Stanki,51.07632585,16.97206692,52-424,Fabryczna
Bukowskiego,51.076584000000004,16.978213,52-424,Fabryczna
DWORCOWA,51.10027773,17.03920149,50-456,Stare Miasto
Weigla (Szpital),51.07644893,17.01767649,53-110,Krzyki
Łozina - Nowego Osiedla II,51.23320247,17.16504378,55-095,Łozina
Łozina - Nowego Osiedla I,51.233436299999994,17.17196466,55-095,Łozina
Piecowice,51.144326,17.21777185,55-093,Piecowice
Mirków - Jagiellońska,51.16812908,17.16457479,55-095,Mirków
Mirków - Sportowa,51.16365614,17.15710423,55-095,Mirków
Szczodre - pętla,51.19448526,17.18273821,55-095,Szczodre
Długołęka - Parkowa/skrzy.,51.17951003,17.19039061,55-095,Długołęka
Długołęka - Kasztanowa,51.17769309,17.18807992,55-095,Długołęka
Długołęka - Wiejska,51.17477041,17.1772107,55-095,Długołęka
Wilczyce - Szkoła,51.12963391,17.15202804,51-361,Wilczyce
Wilczyce - Borowa,51.13006617,17.15062076,51-361,Wilczyce
Wilczyce - Dworska,51.12928849,17.15494185,51-361,Wilczyce
Kiełczów - cmentarz,51.13711789,17.17723723,55-093,Kiełczów
Kiełczów - Biedronka,51.14267753,17.16656505,55-093,Kiełczów
Kiełczów - Ładna,51.14361725,17.16000643,55-093,Kiełczów
Januszkowice - Wrocławska,51.22121378,17.23887904,55-095,Januszkowice
Dobroszów Oleśnicki,51.21637076,17.22870806,55-095,Dobroszów Oleśnicki
Długołęka - SELGROS pętla,51.18310967,17.19859029,55-095,Długołęka
Kamień - Bursztynowa,51.16880359,17.21338331,55-095,Kamień
Kamień - skrzy.,51.1668643,17.21933497,55-095,Kamień
Raków II,51.16903423,17.27754755,55-093,Raków
Borowa - stacja kolejowa,51.18510826,17.27998281,55-093,Borowa
Borowa - skrz.,51.1945381,17.279990100000003,55-093,Borowa
Byków - Ogrodowa,51.19203898,17.24001113,55-095,Byków
Oleśniczka - skrzy.,51.14930245,17.28248046,55-093,Oleśniczka
Raków IV,51.15591487,17.27496993,55-093,Mydlice
Kiełczów - pętla (Plac Jana Pawła),51.13956498,17.17901502,55-093,Kiełczów
Kiełczów - pętla/Wrocławska,51.13942098,17.18003443,55-093,Kiełczów
Raków - skrzy.,51.16764355,17.27609786,55-093,Raków
Siedlec - Wrocławska/sklep,51.23108806,17.11584332,55-095,Siedlec
Siedlec - Wrocławska/szkoła,51.23025225,17.11484443,55-095,Siedlec
Pasikurowice - Energetyczna,51.21400199,17.10984551,55-095,Pasikurowice
Pasikurowice - skrzy. Malinowa,51.20953171,17.10393604,55-095,Pasikurowice
Pasikurowice - cmentarz,51.20432506,17.10098225,55-095,Pasikurowice
Ramiszów,51.18878370000001,17.10154452,55-095,Ramiszów
Domaszczyn Kościół,51.18806857,17.1647516,55-095,Domaszczyn
Domaszczyn - skrzy.,51.1888967,17.15123848,55-095,Domaszczyn
Domaszczyn -Trzebnicka,51.19622836,17.15209165,55-095,Domaszczyn
Michałowice Skrzyżowanie,51.23604219,17.21988123,55-095,Kępa
Łosice - plac zabaw,51.2166976,17.20389775,55-095,Łosice
Łosice,51.21674117,17.20518001,55-095,Łosice
Tokary - centrum,51.23312007,17.14049559,55-095,Tokary
Bukowina - skrzy.,51.20487685,17.15322285,55-095,Domaszczyn
Krakowiany - skrzy.,51.26396505,17.19024275,55-095,Krakowiany
Jaksonowice - skrzy.,51.24956309,17.24524399,55-095,Jaksonowice
Długołęka Urząd Gminy,51.1761828,17.20140973,55-095,Długołęka
Długołęka - Nowy Urząd,51.17362393,17.20243678,55-095,Długołęka
Kamień Diamentowa,51.167353999999996,17.225248999999998,55-095,Kamień
Domaszczyn Wrocławska sklep,51.19004727,17.17085925,55-095,Domaszczyn
Brzezia Łąka - Wrocławska,51.12347136,17.24566591,55-093,Brzezia Łąka
Raków I,51.17007924,17.27768878,55-093,Raków
Byków - Jaśminowa,51.19231209,17.24742866,55-095,Byków
Wilczyce Wilczycka Stary Młyn,51.12286947,17.15491529,51-361,Wilczyce
Wilczyce Wilczycka Clarena,51.11582994,17.17106983,51-361,Wilczyce
Raków - osiedle,51.16682556,17.27031642,55-093,Raków
Raków III,51.15834663,17.27291054,55-093,Mydlice
Zaprężyn - skrzy.,51.25341439,17.20650553,55-095,
Kępa - skrzy.,51.24100069,17.19553935,55-095,
Godzieszowa (na wys. nr 8),51.23849713,17.12815367,55-095,Godzieszowa
Łozina - Wrocławska (na wys. nr 18),51.23001156,17.17257964,55-095,Łozina
Łozina - kościół,51.23222324,17.17635536,55-095,Łozina
Łozina - skrzy.,51.23243976,17.17529152,55-095,Łozina
Łozina - Milicka/poczta,51.23335056,17.1776437,55-095,Łozina
Łozina - Milicka/szkoła,51.23485211,17.18123834,55-095,
Kiełczów - Sosnowa,51.14364876,17.15865851,55-093,Kiełczów
Domaszczyn Stawowa,51.18892249,17.15046502,55-095,Domaszczyn
Pruszowice,51.18862528,17.13417885,51-217,Pruszowice
Siedlec - stacja,51.23456424,17.12128629,55-095,Siedlec
Łozina Cmentarz,51.22845706,17.180519399999998,55-095,Łozina
Brzezia Łąka - skrzy. Główna,51.12319596,17.26323708,55-093,Brzezia Łąka
Brzezia Łąka Główna,51.12254252,17.26496862,55-093,Brzezia Łąka
Kiełczów - WODROL,51.13513467,17.1758657,55-093,Kiełczów
Pasikurowice - Wrocławska (na wys. nr 14),51.21540301,17.11109103,55-095,Wrocław
Siedlec - skrzy. Osiedlowa,51.23404976,17.12148102,55-095,Siedlec
Domaszczyn Wrocławska Skrzyżowanie,51.18787469,17.15324561,55-095,Domaszczyn
Jaksonowice (na wys. bud 27),51.24445935,17.24167971,55-095,Jaksonowice
Januszkowice - skrzy. Kępa,51.23272027,17.23653591,55-095,
Kwiatkowskiego,51.05863952,16.95463943,52-327,Wrocław
Stępin - kościół,51.213441499999995,17.285545300000003,55-093,Stępin
Robotnicza,51.10956766,17.00828923,53-607,Stare Miasto
Stanisławowska (W.K. Formaty),51.09683833,16.94684781,54-611,Fabryczna
Działkowa,51.07775343,17.03382848,50-559,Krzyki
Perzowa,51.1772366,16.99088974,51-180,Psie Pole
Maślicka (Osiedle),51.14749243,16.94773919,54-107,Fabryczna
Zaolziańska,51.09776568,17.02568771,53-333,Krzyki
Rodła,51.12479493,16.86353106,54-530,Fabryczna
Kominiarska (plac sportowy),51.17507239,17.01135744,51-180,Psie Pole
Fieldorfa,51.14652868,16.90804212,54-049,Fabryczna
GIEŁDOWA (Centrum Hurtu),51.0682,16.969337,52-437,Fabryczna
Kajdasza,51.053804,17.058020000000003,52-129,Krzyki
DW. ŚWIEBODZKI,51.10832,17.017020000000002,53-607,Stare Miasto
Jasińskiej,51.1208448,16.87663945,54-519,Fabryczna
Jerzmanowska nr 17,51.127417,16.901809,54-519,Fabryczna
Jerzmanowska nr 9,51.12608266,16.90989177,54-530,Fabryczna
rondo Św. Ojca Pio,51.05953185,17.00626127,52-007,Krzyki
Grota-Roweckiego,51.05064201,17.03040244,52-214,Krzyki
8 Maja,51.1135437,17.091098000000002,51-620,Śródmieście
Racławicka (szkoła),51.08468135,17.00695047,53-148,Krzyki
Gajowicka (szkoła),51.08460418,17.00381203,53-150,Fabryczna
Stabłowicka,51.17034,16.901628,54-066,Fabryczna
KARŁOWICE,51.13425317,17.03714799,51-119,Psie Pole
Awicenny,51.08833411,16.95238558,50-900,Fabryczna
ŚLAZOWA,51.15259932,16.99609657,50,Psie Pole
KMINKOWA,51.179699,17.006034,51-180,Psie Pole
ZWYCIĘSKA,51.05943,17.01098,53-033,Krzyki
Lawendowa,51.169722,17.000487,51-180,Psie Pole
Godzieszowa - transformator,51.24156209,17.13097446,55-095,Godzieszowa
Brzezia Łąka Główna pętla,51.12172239,17.27217965,55-093,Kątna
Hubska (Dawida),51.093049,17.042897,50-505,Krzyki
Os. Przyjaźni,51.06922281,16.99666027,53-019,Krzyki
Lutynia I,51.135712,16.771781,55-330,Lutynia
Lutynia - Kolonia,51.131753,16.75605,55-330,
Radakowice - Świetlica,51.129126,16.743239000000003,55-330,Radakowice
Łowęcice - Staw,51.121501,16.740467000000002,55-330,Łowęcice
Lutynia - Straż,51.134988,16.783095,55-330,Lutynia
Królewiecka (Staw),51.154467,16.924052,54-117,Fabryczna
Borowska (Szpital),51.07472533,17.03254813,50-551,Krzyki
Milicka,51.152347,17.043469,51-124,Psie Pole
LITEWSKA,51.14232537,17.127874,51-354,Psie Pole
Leśnica - Hermes,51.14609505,16.86569237,54-017,Fabryczna
Hallera,51.08681537,17.01291053,53-138,Krzyki
Bardzka,51.08277944,17.05080816,53-041,Krzyki
pl. Daniłowskiego,51.13852292,17.05908537,51-146,Psie Pole
Chłodna,51.07498635,16.99683129,53-000,Krzyki
Kolumba,51.11410084,17.11707984,51-501,Psie Pole
Sowia,51.07379262,17.00184494,53-024,Krzyki
ŻAR,51.150195000000004,16.833785,54-010,Fabryczna
Biskupice Podgórne LG Electronics,51.024387,16.890707,55-040,
Maślice Małe (Brodnicka),51.15293057,16.94011137,54-104,Fabryczna
Rędzińska (Cmentarz),51.14911173,16.94531084,54-106,Fabryczna
Modlińska,51.081695700000004,17.000632,53-146,Krzyki
Królewiecka (Park),51.14821678,16.93077497,54-109,Fabryczna
RACŁAWICKA,51.077395,16.983938000000002,53-329,Fabryczna
Wawrzyniaka,51.07658637,16.9968549,53-025,Krzyki
Wróblowice,51.158314000000004,16.785521,55-330,Wróblowice
Błonie,51.158725,16.74746,55-330,Błonie
Źródła,51.159681,16.724852,55-330,Źródła
Żurawiniec,51.176194,16.811808,55-330,Żurawiniec
Lubiatów,51.225539000000005,16.695853,55-330,Lubiatów
Zabór Mały,51.219213,16.703243,55-330,Lubiatów
Zabór Wielki,51.21228,16.729401,55-330,Zabór Wielki
Gąsiorów,51.24255187,16.7406247,55-330,Głoska
Morelowskiego,51.06968052,16.96895221,52-437,Fabryczna
Białków,51.21510479,16.76535882,55-330,Białków
Klęka,51.20861669,16.749964600000002,55-330,Miękinia
Miękinia - Urząd Gminy,51.19386776,16.73806496,55-330,Miękinia
Miękinia - stacja PKP,51.18825506,16.7356126,55-330,Miękinia
Miękinia Cegielnia,51.188315,16.724634,55-330,Miękinia
Kadłub NŻ,51.182951,16.704586,55-330,
Kadłub wieś,51.17441596,16.69663098,55-330,Kadłub
Brzezinka Średzka - PKP,51.219516,16.836333,55-330,
Wrocławski Park Przemysłowy,51.11256668,16.99423154,52-007,Fabryczna
Krępice - Wrocławska,51.163011,16.810795000000002,55-330,Krępice
Wojnowice - Główna,51.201404,16.795842999999998,55-330,Wojnowice
Czerna,51.225238,16.799962,55-330,Czerna
Wilkostów,51.216012,16.805365,55-330,Wilkostów
Księginice - skrzyż. Warzyna,51.24347312,16.76557357,55-330,Księginice
Księginice P&R,51.242357399999996,16.762288,55-330,Księginice
Miękinia - pętla,51.193844,16.739568,55-330,Miękinia
Brzezia Łąka-skrzy.Orzechowa,51.123558,17.255425,55-093,Brzezia Łąka
Brzezia Łąka-skrzy.Sportowa,51.123613,17.255523999999998,55-093,Brzezia Łąka
Mrozów - Świetlica,51.18563329,16.79068277,55-330,Mrozów
Mrozów - Wyzwolenia,51.188202000000004,16.786337,55-330,Mrozów
Kolbuszowska (Stadion),51.09402385,16.99728754,53-405,Fabryczna
Piołunowa,51.122669,16.87983,54-530,Fabryczna
Kaczorowskiego,51.12626516,16.87994153,54-530,Fabryczna
Osiniecka,51.121863,16.891437,54-530,Fabryczna
Kolejowa,51.103125,17.016701,53-508,Stare Miasto
Jerzmanowo (Cmentarz II),51.12319263,16.88278896,54-530,Fabryczna
Jerzmanowo (Cmentarz I),51.12362299,16.88379955,54-530,Fabryczna
Jerzmanowo (Cmentarz),51.12526194,16.88793033,54-530,Fabryczna
Malinowskiego,51.062346999999995,17.055188,52-131,Krzyki
PORT LOTNICZY,51.10935597,16.88238906,54-530,Fabryczna
Długołęka-Parkowa skrzy. Konopnicka,51.182839,17.188943,55-095,Długołęka
Szczodre-Trzebnicka (na wys. nr 3a),51.185657,17.186179,55-095,Szczodre
Biskupice Podgórne Dongseo/Dong Yang,51.020778,16.896296,55-040,
Biskupice Podgórne LG Chem Energy I,51.017233000000004,16.880546,55-040,Biskupice Podgórne
Wapienna,51.086867,17.042927,50-545,Krzyki
Grzybowa,51.15895,16.853214,54-020,Fabryczna
POPOWICE (Stacja kolejowa),51.125678,17.001904,53-633,Stare Miasto
Ścinawska,51.118848,17.007613,53-631,Stare Miasto
Komuny Paryskiej (szkoła),51.10257931,17.04464708,50-400,Krzyki
Maślicka (Staw),51.156132,16.935817999999998,54-104,Fabryczna
Cesarzowice skrz.,51.062599,16.923579999999998,55-080,Cesarzowice
Krzeptowska,51.12029561,16.85582887,54-530,Fabryczna
Widna,51.08626997,17.04487696,50-547,Krzyki
Buforowa-Rondo,51.07045608,17.053957500000003,52-231,Krzyki
Jagodzińska,51.05871295,17.05649988,52-129,Krzyki
Vivaldiego,51.04942078,17.05944212,52-131,Krzyki
Arachidowa,51.15451186,16.89774018,54-063,Fabryczna
Aleja Architektów,51.13892608,16.92885963,54-115,Fabryczna
Olbrachtowska,51.152698,16.904995,54-063,Fabryczna
Stoszowska,51.15141838,16.91095644,54-060,Fabryczna
Pęgowska,51.196290999999995,16.978707,51-180,Psie Pole
Zajączkowska,51.189116,16.978889000000002,51-180,Psie Pole
Kominiarska,51.169905,16.997678,51-180,Psie Pole
Lutynia Centrum,51.135008,16.7834535,55-330,Lutynia
Księginice ul. Sportowa,51.239133,16.761698000000003,55-330,Księginice
Brzezina - ul. Chrobrego,51.201454999999996,16.834967300000002,55-330,Brzezina
Ferma - stadnina koni,51.1180276,16.8253587,55,
Gałów Przedszkole,51.111809,16.816682,55-330,Gałów
Brzezinka Średzka - ul. Główna,51.2158882,16.836902,55-330,Brzezinka Średzka
Gałów przy posesji nr 2,51.111877,16.816708,55-330,Gałów
Lutynia Osiedle ul. Wschodnia,51.138206,16.796254,55-330,Lutynia
Wróblowice Innowacyjna,51.153127000000005,16.814639,55-330,Krępice
Głoska - ul. Średzka,51.239885,16.721478,55-330,Głoska
Lenartowice przy posesji nr 11a,51.243971,16.799701000000002,55-330,Lenartowice
Prężyce przy posesji nr 22,51.238238,16.818722,55-330,Prężyce
Gosławice - przejazd PKP,51.223759,16.826119,55-330,Gosławice
Kiełczów - Akacjowa,51.138366,17.193305,55-093,Kiełczów
Awicenny (Stacja kolejowa),51.091423,16.950515,54-611,Fabryczna
Brzezinka Średzka - ul. Parkowa,51.216198,16.825134,55-330,Brzezinka Średzka
Dolnośląska Szkoła Wyższa,51.112237,16.989922,53-609,Fabryczna
Szymanów (Widawska),51.190942,17.027836999999998,51-180,Szymanów
Zagłębiowska,51.07275516,17.08914075,52-013,Krzyki
Brochowska,51.06901248,17.09480413,52-014,Krzyki
BRZEZINA (pętla),51.2031854,16.826457,55-330,Brzezina
Uniwersytet Wrocławski,51.113719,17.03226,50-115,Stare Miasto
Kiełczówek - Sielska Zagroda,51.12373472,17.17532225,51-311,Kiełczówek
Długołęka - Broniewskiego (na wys. nr 11),51.176577,17.191492,55-095,Długołęka
Kamień - skrzy. Rubinowa,51.164214,17.218428,55-095,Kamień
Kamień - skrzy. Diamentowa,51.166527,17.219976000000003,55-095,Kamień
Kamień - skrzy. Kryształowa,51.163556,17.215341,55-095,Kamień
Dobroszów-skrzy. Węgierska,51.212527,17.226101,55-095,Dobroszów Oleśnicki
Trestno - świetlica,51.081634,17.145597,50-458,Blizanowice
Trestno - kościół,51.080184,17.144953,50-458,Wrocław
Strzegomska (Muzeum Współczesne),51.112458000000004,17.005204,53-680,Stare Miasto
Księska,51.07639388,17.09019786,52-020,Krzyki
Mokry Dwór - Starodworska,51.072222,17.116998000000002,55-010,Mokry Dwór
Iwiny - rondo,51.044606,17.060845999999998,52-116,Iwiny
Iwiny - Kościuszki 21,51.04100036,17.07472229,52-116,Iwiny
Berenta,51.134583,17.059260000000002,51-160,Psie Pole
Samotwór - Leśna,51.10296644,16.83125716,54-433,Samotwór
Zabrodzie - pętla,51.05678879,16.94541198,52-327,Zabrodzie
Bielany Wrocławskie - Kwiatowa,51.032471,16.967816,55-040,Bielany Wrocławskie
Bielany Wrocławskie - Kościół,51.04007248,16.96906153,55-040,Bielany Wrocławskie
Ślęza - autostrada,51.04292743,16.99112337,55-040,Ślęza
Bielany Wrocławskie - skrzyżowanie,51.03909175,16.97094031,55-040,Bielany Wrocławskie
Ślęza - skrzyżowanie,51.0374831,16.98597838,55-040,Ślęza
Bielany Wrocławskie - Makro,51.04667396,16.97036927,55-040,Bielany Wrocławskie
Bielany Wrocławskie - Boczna,51.03737682,16.96816056,55-040,Bielany Wrocławskie
POŚWIĘCKA (Ośrodek zdrowia),51.15649944,17.03209808,51-128,Psie Pole
Wysoka - Radosna,51.04872555,16.99995216,52-200,Wysoka
Bielany Wrocławskie - PKP,51.03757296,16.97735356,55-040,Ślęza
Wysoka - Chabrowa,51.047340000000005,17.006489000000002,52-200,Wysoka
Wysoka - osiedle,51.05101776,17.00189018,52-200,Wysoka
Gazowa,51.07828273,17.06885171,50-513,Krzyki
Ślęza - Dębowa,51.03911972,16.98682975,55-075,Ślęza
Ślęza - Szyszkowa,51.039348600000004,16.98706054,55-040,Ślęza
Kasprowicza,51.137338,17.052893,51-160,Psie Pole
Węgrów (na wys. nr 7),51.264946,17.220334,55-095,Węgrów
Skała - wieś,51.25944976,17.23414903,55-095,Skała
Kępa (na wys. nr 36),51.24043927,17.20006945,55-095,Kępa
Kiełczówek - skrzy. Imbirowa,51.11949041,17.17921285,51-311,Kiełczówek
Wilczyce - Wrocławska (na wys. nr 1F),51.13176789,17.14584939,51-361,Wilczyce
Psary - Wolności,51.186026,17.029555,51-188,Psary
pl. Wyzwolenia,51.141773,16.99168,51-005,Psie Pole
Fabryczna,51.112386,16.983487,53-611,Fabryczna
Otyńska,51.112448,16.977959,54-426,Fabryczna
ŚWINIARY,51.199095,16.974889,51-180,Psie Pole
Pietrzykowice - Wrocławska/Stawowa,51.05552354,16.88244103,55-080,Pietrzykowice
Mokronos Dolny - Parkowa/Stawowa,51.07062,16.938184,55-080,Mokronos Dolny
Jaszkotle - kościół,51.057105,16.901841,55-080,Gądów
Pietrzykowice - zakład,51.04804853,16.88169217,55-080,Pietrzykowice
KRZYŻANOWICE,51.17409242,17.04887768,51-188,Krzyżanowice
Wiaduktowa,51.07521305,17.07640349,52-110,Krzyki
Topolowa,51.06946513,17.08041925,52-110,Krzyki
BROCHÓW (Stacja kolejowa),51.06360482,17.08374373,52-110,Krzyki
SZYMANÓW,51.1941474,17.01884661,51-180,Szymanów
Śliczna,51.08508643,17.03498376,50-551,Krzyki
pl. Orląt Lwowskich,51.10686141,17.02125589,50-048,Stare Miasto
Zielińskiego,51.098521999999996,17.02050515,53-531,Krzyki
Piłsudskiego,51.10182174,17.02475991,53-531,Stare Miasto
KŁOKOCZYCE,51.15696053,17.09628151,51-376,Psie Pole
Świstackiego,51.09900544,17.05013442,50-433,Krzyki
Rakowiecka,51.09710379,17.06767258,50-438,Krzyki
Na Grobli,51.10147358,17.06736263,50-422,Krzyki
Opatowicka nr 85,51.09515536,17.12302758,52-028,Krzyki
Międzyrzecka,51.09436249,17.08236018,50-422,Krzyki
Nowy Dom,51.09340204,17.10706553,52-028,Krzyki
Bierdzany,51.09171676,17.09261703,50-421,Krzyki
OPATOWICE,51.09483363,17.1292184,52-028,Krzyki
Malwowa,51.16692787,17.10998542,51-250,Psie Pole
Poczta Główna,51.1078565,17.04563742,50-529,Krzyki
ZAKRZÓW,51.1624766,17.12512042,51-216,Psie Pole
Okrzei,51.10642824,17.09846396,51-676,Śródmieście
Partyzantów,51.10631317,17.09207313,51-668,Śródmieście
Bacciarellego,51.10543867,17.11165182,51-649,Śródmieście
Swojczyce,51.114581799999996,17.12881622,51-502,Psie Pole
Monopolowa,51.11538529,17.11163429,51-501,Psie Pole
Libelta,51.10945916,17.10841757,51-681,Śródmieście
Miłoszycka,51.11694191,17.1262475,51-503,Psie Pole
Zagrodnicza,51.10673046,17.14323522,51-511,Psie Pole
Smocza,51.10335599,17.15474216,51-511,Psie Pole
Strumykowa,51.10140931,17.15771109,51-518,Psie Pole
Ceglana,51.12108913,17.12084239,51-502,Psie Pole
Śniadeckich,51.11978379,17.07746295,51-602,Śródmieście
Zacisze,51.12435183,17.07782182,51-601,Śródmieście
Dolnobrzeska,51.15501757,16.85941441,54-020,Fabryczna
Pola,51.13671695,17.04317468,51-137,Psie Pole
Redycka,51.1486843,17.075569899999998,51-168,Psie Pole
Różanka,51.13939941,17.02111603,51-112,Psie Pole
Las Osobowicki,51.14781589,16.98421285,51-003,Psie Pole
Jarocińska,51.14192034,16.99060405,51-001,Psie Pole
OSOBOWICKA (Cmentarz),51.13545586,17.004256299999998,51-110,Psie Pole
Paprotna,51.14775215,17.02053929,51-114,Psie Pole
Irysowa,51.1506472,17.01789533,51-114,Psie Pole
Ostowa,51.16219634,17.00336693,51-180,Psie Pole
LIPA PIOTROWSKA,51.17274893,16.99508019,51-180,Psie Pole
Lekarska,51.16043099,17.02736557,51-129,Psie Pole
Żmigrodzka (Obwodnica),51.15433667,17.02810627,51-131,Psie Pole
Krzelowska,51.17746152,16.87860036,54-079,Fabryczna
Widawa,51.17530737,17.02277559,51-180,Psie Pole
Jutrosińska,51.14636193,17.04188263,51-124,Psie Pole
Ługowa,51.15877896,17.04443946,51-126,Psie Pole
Kątowa,51.15619424,17.04438343,51-124,Psie Pole
POLANOWICE,51.16226577,17.04579925,51-180,Psie Pole
Zielna,51.14511355,17.1072601,51-310,Psie Pole
Kopańskiego,51.15453338,17.11896705,51-662,Psie Pole
Azaliowa,51.16417141,17.111936399999998,51-253,Psie Pole
Marszowice,51.16686502,16.89012427,54-078,Fabryczna
Piwnika - Ponurego,51.14950542,17.11105232,51-321,Psie Pole
Królewska,51.15558313,17.12901857,51-206,Psie Pole
Bojanowska,51.16512925,16.88135829,54-078,Fabryczna
KIEŁCZOWSKA (LZN),51.14658034,17.12473187,51-315,Psie Pole
Kiełczowska,51.14552316,17.13706342,51-315,Psie Pole
Kowieńska,51.14293436,17.13440983,51-351,Psie Pole
Gorlicka,51.143809499999996,17.11937899,51-314,Psie Pole
Palacha,51.14049945,17.12631935,51-350,Psie Pole
Polkowicka,51.15526292,16.87306982,54-078,Fabryczna
Kiełczów - osiedle,51.132544200000005,17.17250844,55-093,Kiełczów
KUŹNIKI (Stacja kolejowa),51.12621515,16.95508704,54-129,Fabryczna
Przybyły,51.10898466,16.91713142,54-516,Fabryczna
Wolska,51.146661,16.869355,54-076,Fabryczna
Mokra,51.17146013,16.83774388,54-074,Fabryczna
Jędrzejowska,51.15836473,16.91688767,54-061,Fabryczna
Park Stabłowicki,51.15967745,16.89369002,54-058,Fabryczna
Stabłowice,51.15567016,16.89009702,54-058,Fabryczna
Ciechocińska,51.152764000000005,16.884055,54-055,Fabryczna
Śnieżna,51.14968428,16.87935804,54-056,Fabryczna
Zajezdnia Obornicka,51.14873744,17.02106859,51-114,Psie Pole
Malinowa,51.06671774,17.01055621,53-010,Krzyki
PRACZE ODRZAŃSKIE (Stacja kolejowa),51.171395700000005,16.9024931,54-066,Fabryczna
Kowale (Stacja kolejowa),51.13393676,17.10221243,51-424,Psie Pole
Mikołowska,51.11175155,17.136499399999998,51-515,Psie Pole
STABŁOWICKA (Ośrodek zdrowia),51.16683326,16.89859871,54-066,Fabryczna
Oboźna,51.05829838,17.03259791,52-244,Krzyki
Śliwowa,51.15490008,16.93899342,54-107,Fabryczna
Chwałkowska,51.1597972,16.91014067,54-061,Fabryczna
Warmińska,51.14647483,16.94019983,54-117,Fabryczna
Arena,51.09502826,17.02726149,53-342,Krzyki
Kowalska,51.12901131,17.11362994,51-424,Psie Pole
